*******************************************************************************
JPL/HORIZONS               187 Lamberta (A878 GB)          2023-Sep-04 11:04:53
Rec #:     187 (+COV) Soln.date: 2023-Aug-22_12:19:18   # obs: 8019 (1880-2023)
 
IAU76/J2000 helio. ecliptic osc. elements (au, days, deg., period=Julian yrs):
 
  EPOCH=  2455813.5 ! 2011-Sep-09.00 (TDB)         Residual RMS= .24733
   EC= .2385395283409208   QR= 2.082316947411227   TP= 2456605.6106267856
   OM= 21.81186194953456   W=  196.2728406742359   IN= 10.60164333161981
   A= 2.734635644151363    MA= 187.3602858435256   ADIST= 3.3869543408915
   PER= 4.52228            N= .217948994           ANGMOM= .027625478
   DAN= 3.34497            DDN= 2.09851            L= 217.8212738
   B= -2.955092            MOID= 1.07894003        TP= 2013-Nov-09.1106267855
 
Asteroid physical parameters (km, seconds, rotational period in hours):
   GM= n.a.                RAD= 73.647             ROTPER= 10.67
   H= 8.43                 G= .150                 B-V= .709
                           ALBEDO= .044            STYP= Ch

ASTEROID comments: 
1: soln ref.= JPL#115, OCC=0
2: source=ORB
*******************************************************************************


*******************************************************************************
Ephemeris / API_USER Mon Sep  4 11:04:53 2023 Pasadena, USA      / Horizons
*******************************************************************************
Target body name: 187 Lamberta (A878 GB)          {source: JPL#115}
Center body name: Solar System Barycenter (0)     {source: DE441}
Center-site name: BODY CENTER
*******************************************************************************
Start time      : A.D. 2023-Aug-12 00:00:00.0000 TDB
Stop  time      : A.D. 2023-Aug-13 00:00:00.0000 TDB
Step-size       : 2880 minutes
*******************************************************************************
Center geodetic : 0.0, 0.0, 0.0                   {E-lon(deg),Lat(deg),Alt(km)}
Center cylindric: 0.0, 0.0, 0.0                   {E-lon(deg),Dxy(km),Dz(km)}
Center radii    : (undefined)
Small perturbers: Yes                             {source: SB441-N16}
Output units    : KM-S
Calendar mode   : Mixed Julian/Gregorian
Output type     : GEOMETRIC cartesian states
Output format   : 2 (position and velocity)
Reference frame : Ecliptic of J2000.0
*******************************************************************************
Initial IAU76/J2000 heliocentric ecliptic osculating elements (au, days, deg.):
  EPOCH=  2455813.5 ! 2011-Sep-09.00 (TDB)         Residual RMS= .24733        
   EC= .2385395283409208   QR= 2.082316947411227   TP= 2456605.6106267856      
   OM= 21.81186194953456   W=  196.2728406742359   IN= 10.60164333161981       
  Equivalent ICRF heliocentric cartesian coordinates (au, au/d):
   X= 2.492305855373570E+00  Y= 2.001016841380043E+00  Z= 1.109978374719089E+00
  VX=-5.646720343659358E-03 VY= 4.709321816606409E-03 VZ= 3.556045924931302E-03
Asteroid physical parameters (km, seconds, rotational period in hours):        
   GM= n.a.                RAD= 73.647             ROTPER= 10.67               
   H= 8.43                 G= .150                 B-V= .709                   
                           ALBEDO= .044            STYP= Ch                    
*******************************************************************************
JDTDB
   X     Y     Z
   VX    VY    VZ
*******************************************************************************
$$SOE
2460168.500000000 = A.D. 2023-Aug-12 00:00:00.0000 TDB 
 X = 2.127422164501171E+08 Y =-3.054659951417419E+08 Z =-6.772204363463873E+07
 VX= 1.802985016525099E+01 VY= 7.092733409977996E+00 VZ=-9.697461078411518E-03
$$EOE
*******************************************************************************
 
TIME

  Barycentric Dynamical Time ("TDB" or T_eph) output was requested. This
continuous coordinate time is equivalent to the relativistic proper time
of a clock at rest in a reference frame co-moving with the solar system
barycenter but outside the system's gravity well. It is the independent
variable in the solar system relativistic equations of motion.

  TDB runs at a uniform rate of one SI second per second and is independent
of irregularities in Earth's rotation.
 
CALENDAR SYSTEM

  Mixed calendar mode was active such that calendar dates after AD 1582-Oct-15
(if any) are in the modern Gregorian system. Dates prior to 1582-Oct-5 (if any)
are in the Julian calendar system, which is automatically extended for dates
prior to its adoption on 45-Jan-1 BC.  The Julian calendar is useful for
matching historical dates. The Gregorian calendar more accurately corresponds
to the Earth's orbital motion and seasons. A "Gregorian-only" calendar mode is
available if such physical events are the primary interest.

REFERENCE FRAME AND COORDINATES

  Ecliptic at the standard reference epoch

    Reference epoch: J2000.0
    X-Y plane: adopted Earth orbital plane at the reference epoch
               Note: IAU76 obliquity of 84381.448 arcseconds wrt ICRF X-Y plane
    X-axis   : ICRF
    Z-axis   : perpendicular to the X-Y plane in the directional (+ or -) sense
               of Earth's north pole at the reference epoch.

  Symbol meaning:

    JDTDB    Julian Day Number, Barycentric Dynamical Time
      X      X-component of position vector (km)
      Y      Y-component of position vector (km)
      Z      Z-component of position vector (km)
      VX     X-component of velocity vector (km/sec)                           
      VY     Y-component of velocity vector (km/sec)                           
      VZ     Z-component of velocity vector (km/sec)                           

ABERRATIONS AND CORRECTIONS

 Geometric state vectors have NO corrections or aberrations applied.

Computations by ...

    Solar System Dynamics Group, Horizons On-Line Ephemeris System
    4800 Oak Grove Drive, Jet Propulsion Laboratory
    Pasadena, CA  91109   USA

    General site: https://ssd.jpl.nasa.gov/
    Mailing list: https://ssd.jpl.nasa.gov/email_list.html
    System news : https://ssd.jpl.nasa.gov/horizons/news.html
    User Guide  : https://ssd.jpl.nasa.gov/horizons/manual.html
    Connect     : browser        https://ssd.jpl.nasa.gov/horizons/app.html#/x
                  API            https://ssd-api.jpl.nasa.gov/doc/horizons.html
                  command-line   telnet ssd.jpl.nasa.gov 6775
                  e-mail/batch   https://ssd.jpl.nasa.gov/ftp/ssd/hrzn_batch.txt
                  scripts        https://ssd.jpl.nasa.gov/ftp/ssd/SCRIPTS
    Author      : Jon.D.Giorgini@jpl.nasa.gov
*******************************************************************************
